satname,norad_id,inclination_deg,eccentricity,mean_motion_rev_per_day,perigee_km,apogee_km,l1,l2
STARLINK-1142,45093,53.023,0.0009402,15.88334981,300.6653565268689,313.23599539274437,1 45093U 20006BB  25345.66668981  .00698928  00000+0  22860-2 0  9999,2 45093  53.0230 195.5877 0009402 204.7371 220.0027 15.88334981  5803
STARLINK-1152,45096,53.0419,0.0004621,15.28036593,478.51231032841315,484.8521552633629,1 45096U 20006BE  25345.45891790  .00067174  00000+0  24140-2 0  9991,2 45096  53.0419 259.2378 0004621  36.5540 323.5773 15.28036593324056
STARLINK-1184,45098,53.0551,0.0001284,15.06416027,546.2732294792586,548.0516463749182,1 45098U 20006BG  25345.53911749  .00011108  00000+0  76310-3 0  9992,2 45098  53.0551 282.3426 0001284  87.7744 272.3392 15.06416027323734
STARLINK-1193,45100,53.0553,0.0001448,15.06411446,546.1736924273382,548.1792632105144,1 45100U 20006BJ  25345.53543159  .00005439  00000+0  38361-3 0  9996,2 45100  53.0553 282.3583 0001448  98.8726 261.2427 15.06411446323735
STARLINK-1143,45179,53.0529,0.0002889,15.45959601,426.59347835744575,430.5263878453916,1 45179U 20012B   25345.44480470  .00114368  00000+0  22848-2 0  9999,2 45179  53.0529  35.7738 0002889 180.4033 179.6971 15.45959601322205
STARLINK-1202,45183,53.054,0.0001767,15.06403723,545.9764404290236,548.4238545769504,1 45183U 20012F   25345.53174468 -.00000487  00000+0 -13802-4 0  9991,2 45183  53.0540  82.3774 0001767  92.8830 267.2361 15.06403723321556
STARLINK-1216,45185,53.0555,0.0001787,15.06390218,546.0039733768135,548.479103666481,1 45185U 20012H   25345.45803683  .00000455  00000+0  49485-4 0  9991,2 45185  53.0555  82.7061 0001787 119.7476 240.3691 15.06390218321488
STARLINK-1225,45187,53.0525,0.0001581,15.0640807,546.0919309643077,548.2817183576653,1 45187U 20012K   25345.54280568 -.00000849  00000+0 -38069-4 0  9999,2 45187  53.0525  82.3239 0001581  99.5672 260.5496 15.06408070321545
STARLINK-1230,45189,53.0526,0.0001806,15.06425621,545.8823306081167,548.3837381445328,1 45189U 20012M   25345.54646590  .00003027  00000+0  22189-3 0  9996,2 45189  53.0526  82.3110 0001806  86.6681 273.4515 15.06425621318770
STARLINK-1234,45190,53.0505,0.0007058,15.42848785,432.89571274338505,442.5169571950273,1 45190U 20012N   25345.44833939  .00115189  00000+0  25553-2 0  9992,2 45190  53.0505  30.2494 0007058 352.7140   7.3761 15.42848785322174
STARLINK-1269,45197,53.0549,0.0001327,15.06403596,546.2815444469961,548.1195290292453,1 45197U 20012V   25345.62389122  .00001819  00000+0  14098-3 0  9996,2 45197  53.0549  81.9606 0001327  95.4979 264.6161 15.06403596321539
STARLINK-1154,45198,53.0545,0.0001092,15.06402866,546.4465269716538,547.9590211783116,1 45198U 20012W   25345.48198584  .00000215  00000+0  33327-4 0  9997,2 45198  53.0545  62.5994 0001092  73.9828 286.1282 15.06402866321761
STARLINK-1199,45201,53.0595,0.0001649,15.06407552,546.0464260821827,548.33039840314,1 45201U 20012Z   25345.49303860  .00000502  00000+0  52612-4 0  9995,2 45201  53.0595  62.5508 0001649  90.5826 269.5352 15.06407552321820
STARLINK-1209,45206,53.0529,0.0006937,15.36132812,452.81587831084653,462.29972127608016,1 45206U 20012AE  25345.61024540  .00063950  00000+0  17851-2 0  9999,2 45206  53.0529  31.9380 0006937 355.8858   4.2086 15.36132812321316
STARLINK-1210,45207,53.0209,0.0003037,15.67645558,363.592790084077,367.6889607656094,1 45207U 20012AF  25345.66668981  .00143571  00000+0  12725-2 0  9991,2 45207  53.0209 345.1951 0003037 146.6905 320.5701 15.67645558  5994
STARLINK-1231,45212,53.0519,0.0003254,15.15095273,518.4444564280811,522.934212606584,1 45212U 20012AL  25345.50980456  .00037348  00000+0  19772-2 0  9997,2 45212  53.0519  58.7202 0003254 157.6625 202.4511 15.15095273321839
STARLINK-1271,45217,53.0555,0.0001429,15.0641668,546.1708116086575,548.1500616160411,1 45217U 20012AR  25345.61098798  .00001554  00000+0  12316-3 0  9991,2 45217  53.0555  62.0187 0001429  96.0215 264.0937 15.06416680321843
STARLINK-1191,45222,53.055,0.0001421,15.06397802,546.2342015125487,548.2023874872457,1 45222U 20012AW  25345.48751538  .00018100  00000+0  12309-2 0  9996,2 45222  53.0550  42.5734 0001421  85.6587 274.4564 15.06397802322108
STARLINK-1212,45223,53.0542,0.0001487,15.06412518,546.1433987112778,548.2029859624781,1 45223U 20012AX  25345.43967846  .00005632  00000+0  39655-3 0  9993,2 45223  53.0542  43.4449 0001487  85.7121 274.4038 15.06412518322096
STARLINK-1215,45225,53.0552,0.0001343,15.06417021,546.2293242105661,548.0894588213268,1 45225U 20012AZ  25345.46171479  .00017550  00000+0  11936-2 0  9990,2 45225  53.0552  42.6874 0001343  96.7380 263.3762 15.06417021322053
STARLINK-1221,45227,53.0687,0.0005522,15.38501829,446.7680398919929,454.3096294838215,1 45227U 20012BB  25345.33491290  .00027572  00000+0  72236-3 0  9990,2 45227  53.0687 327.1755 0005522  85.1556 275.0077 15.38501829323092
STARLINK-1222,45228,53.0559,0.000137,15.17398986,512.760858548344,514.6492232675528,1 45228U 20012BC  25345.66668981  .02065104  00000+0  93104-1 0  9990,2 45228  53.0559  41.2106 0001370  99.8426  42.5918 15.17398986  5789
STARLINK-1226,45229,53.0548,0.0001675,15.06444298,545.915821132262,548.235767418344,1 45229U 20012BD  25345.59071141  .00014279  00000+0  97439-3 0  9991,2 45229  53.0548  42.1083 0001675  91.3599 268.7582 15.06444298322011
STARLINK-1227,45230,53.0553,0.0001403,15.06411284,546.2053527687549,548.1485958699486,1 45230U 20012BE  25345.58702995  .00000689  00000+0  65139-4 0  9993,2 45230  53.0553  42.1255 0001403  89.2925 270.8225 15.06411284322138
STARLINK-1246,45235,53.053,8.82e-05,15.06439859,546.4785935692626,547.700203505964,1 45235U 20012BK  25345.53541961  .00018576  00000+0  12613-2 0  9998,2 45235  53.0530  82.3575 0000882  90.1130 269.9960 15.06439859321578
STARLINK-1270,45237,53.0555,0.0001247,15.06400108,546.347636009953,548.0748178577496,1 45237U 20012BM  25345.60546594 -.00001675  00000+0 -93587-4 0  9990,2 45237  53.0555  42.0418 0001247 104.2743 255.8385 15.06400108322121
STARLINK-1279,45360,53.0499,0.0008725,15.40599589,438.38596522359694,450.29118510225635,1 45360U 20019A   25345.60127793  .00110315  00000+0  26385-2 0  9990,2 45360  53.0499 160.4936 0008725 151.1184 209.0305 15.40599589317029
STARLINK-1301,45361,53.0495,0.0008883,15.43556362,429.5705591821197,441.6758855932121,1 45361U 20019B   25345.49373724  .00159685  00000+0  34342-2 0  9990,2 45361  53.0495 169.9499 0008883 142.6372 217.5252 15.43556362316897
STARLINK-1306,45362,53.0379,0.0001698,15.87530555,308.073264716224,310.34428734176345,1 45362U 20019C   25345.66668981  .00365339  00000+0  12950-2 0  9998,2 45362  53.0379 148.0008 0001698  72.2966 101.0385 15.87530555  5980
STARLINK-1262,45366,53.0543,0.0001357,15.06400139,546.2713621818284,548.1509016648315,1 45366U 20019G   25344.98623907  .00002579  00000+0  19197-3 0  9990,2 45366  53.0543 204.8200 0001357  94.8432 265.2712 15.06400139316361
STARLINK-1273,45367,53.0563,0.0001694,15.0639714,546.0471679096399,548.3934789708219,1 45367U 20019H   25345.34008947 -.00000148  00000+0  89611-5 0  9994,2 45367  53.0563 203.2317 0001694  85.5122 274.6061 15.06397140316417
STARLINK-1276,45368,53.0541,0.000128,15.06400467,546.3236822186955,548.0965710831179,1 45368U 20019J   25344.91252051  .00002446  00000+0  18301-3 0  9992,2 45368  53.0541 205.1559 0001280  89.3895 270.7240 15.06400467316359
STARLINK-1277,45369,53.0525,0.0001471,15.06405789,546.1750993808982,548.2125317068312,1 45369U 20019K   25345.63503628  .00001518  00000+0  12078-3 0  9996,2 45369  53.0525 202.5363 0001471  88.6540 271.4618 15.06405789316457
STARLINK-1281,45370,53.0527,0.0001598,15.06477833,545.8663886924924,548.0796538552922,1 45370U 20019L   25345.63125940 -.00018369  00000+0 -12148-2 0  9996,2 45370  53.0527 201.9303 0001598  71.6658 288.4505 15.06477833316463
STARLINK-1300,45374,53.0536,0.0001688,15.0641196,546.0059098542106,548.3438951524959,1 45374U 20019Q   25345.32165269  .00003465  00000+0  25131-3 0  9990,2 45374  53.0536 203.3166 0001688  98.8512 261.2668 15.06411960316413
STARLINK-1302,45375,53.0528,3.54e-05,15.06440393,546.8426090206058,547.3329149337542,1 45375U 20019R   25345.33638521  .00010375  00000+0  71361-3 0  9992,2 45375  53.0528 203.2518 0000354  61.5660 298.5364 15.06440393316413
STARLINK-1304,45376,53.0529,0.000133,15.06406083,546.2718456035009,548.1139833607531,1 45376U 20019S   25344.89041255  .00006785  00000+0  47391-3 0  9991,2 45376  53.0529 205.2513 0001330 100.8977 259.2161 15.06406083316344
STARLINK-1305,45377,53.0502,0.0008517,15.36929084,449.3766291748061,461.0165295939296,1 45377U 20019T   25345.01456504  .00092711  00000+0  25073-2 0  9990,2 45377  53.0502 194.4921 0008517 129.8572 230.3181 15.36929084316519
STARLINK-1319,45379,53.0529,0.0007513,15.41847202,435.53476678739025,445.78068774457915,1 45379U 20019V   25344.97668259  .00098100  00000+0  22565-2 0  9999,2 45379  53.0529 195.7349 0007513 134.4979 225.6640 15.41847202316497
STARLINK-1266,45383,53.0547,0.0001422,15.06398694,546.2307755089478,548.2003457771953,1 45383U 20019Z   25344.97701490 -.00000559  00000+0 -18627-4 0  9998,2 45383  53.0547 184.8681 0001422  92.3943 267.7209 15.06398694316637
STARLINK-1267,45384,53.0557,0.0001984,15.06507245,545.5089630129414,548.2568109040858,1 45384U 20019AA  25345.55935142  .00013125  00000+0  89579-3 0  9991,2 45384  53.0557 182.9067 0001984  69.5393 290.5809 15.06507245316717
STARLINK-1272,45386,53.0517,0.0008897,15.4015416,439.58280674449907,451.725060331637,1 45386U 20019AC  25345.59133750  .00095219  00000+0  23169-2 0  9998,2 45386  53.0517 171.1169 0008897 146.5363 213.6204 15.40154160316886
STARLINK-1274,45387,53.0326,0.0004755,15.33947711,460.79440982336473,467.30132763352594,1 45387U 20019AD  25345.50762143  .00122065  00000+0  36158-2 0  9996,2 45387  53.0326 160.4367 0004755 110.9778 249.1732 15.33947711317021
